NAVSTAR 77 (USA 289)    
1 43873U 18109A   23270.06638703  .00000051  00000+0  00000+0 0  9995
2 43873  55.1997 131.4669 0026171 190.3125 328.6787  2.00569471 35082
